[{"OBJECT_NAME":"STARLINK-5830","OBJECT_ID":"2023-088T","EPOCH":"2026-03-09T03:33:42.535008","MEAN_MOTION":15.02531614,"ECCENTRICITY":0.00013745,"INCLINATION":43.0036,"RA_OF_ASC_NODE":110.7944,"ARG_OF_PERICENTER":273.4265,"MEAN_ANOMALY":86.6421,"EPHEMERIS_TYPE":0,"CLASSIFICATION_TYPE":"U","NORAD_CAT_ID":57065,"ELEMENT_SET_NO":999,"REV_AT_EPOCH":14930,"BSTAR":1.5973487e-5,"MEAN_MOTION_DOT":1.2e-7,"MEAN_MOTION_DDOT":0},{"OBJECT_NAME":"KUIPER-00179","OBJECT_ID":"2025-301D","EPOCH":"2026-03-09T22:00:01.999584","MEAN_MOTION":15.06426136,"ECCENTRICITY":0.00027009,"INCLINATION":51.8878,"RA_OF_ASC_NODE":65.7875,"ARG_OF_PERICENTER":79.7828,"MEAN_ANOMALY":141.5104,"EPHEMERIS_TYPE":0,"CLASSIFICATION_TYPE":"U","NORAD_CAT_ID":67136,"ELEMENT_SET_NO":999,"REV_AT_EPOCH":537,"BSTAR":-0.078767589,"MEAN_MOTION_DOT":-0.01086026,"MEAN_MOTION_DDOT":0}]
